0 COSMOS 2254
1 22689U 93038C   13281.53624389  .00000038  00000-0  14822-3 0  5756
2 22689 082.5779 294.1351 0013127 067.4314 029.3668 12.64801657936867
0 COSMOS 2254
1 22689U 93038C   13282.72900703  .00000040  00000-0  15550-3 0  5768
2 22689 082.5778 293.3705 0013100 064.9117 060.1636 12.64801737937019
0 COSMOS 2254
1 22689U 93038C   13284.14080016  .00000038  00000-0  14845-3 0  5776
2 22689 082.5776 292.4653 0013063 061.8823 008.2782 12.64801740937195
0 COSMOS 2254
1 22689U 93038C   13285.49463284  .00000020  00000-0  47652-4 0  5782
2 22689 082.5775 291.5973 0013028 058.9282 052.5377 12.64801976937368
0 COSMOS 2254
1 22689U 93038C   13286.68252203  .00000015  00000-0  23078-4 0  5792
2 22689 082.5775 290.8357 0013002 056.3354 061.2272 12.64802115937514
0 COSMOS 2254
1 22689U 93038C   13287.78705956 -.00000003  00000-0 -71779-4 0  5804
2 22689 082.5775 290.1274 0012990 053.8779 050.4467 12.64802273937659
0 COSMOS 2254
1 22689U 93038C   13289.12358192 -.00000006  00000-0 -91886-4 0  5815
2 22689 082.5777 289.2703 0012965 050.9933 015.8601 12.64802284937825
0 COSMOS 2254
1 22689U 93038C   13290.47486326 -.00000013  00000-0 -13047-3 0  5827
2 22689 082.5779 288.4036 0012861 048.2564 048.2946 12.64802227937999
0 COSMOS 2254
1 22689U 93038C   13291.58518039  .00000002  00000-0 -47702-4 0  5831
2 22689 082.5780 287.6916 0012822 045.8550 063.7628 12.64802135938138
0 COSMOS 2254
1 22689U 93038C   13293.07746359  .00000017  00000-0  35903-4 0  5841
2 22689 082.5782 286.7347 0012765 042.6654 018.3516 12.64802077938322
0 COSMOS 2254
1 22689U 93038C   13294.10766925  .00000030  00000-0  10232-3 0  5850
2 22689 082.5782 286.0742 0012770 040.3793 029.1157 12.64801975938450
0 COSMOS 2254
1 22689U 93038C   13295.47421336  .00000032  00000-0  11770-3 0  5866
2 22689 082.5783 285.1981 0012712 037.4115 131.2412 12.64801864938622
